*******************************************************************************
Ephemeris / WWW_USER Mon Mar 26 21:03:06 2018 Pasadena, USA      / Horizons    
*******************************************************************************
Target body name: Dione (604)                     {source: sat389}
Center body name: Saturn Barycenter (6)           {source: sat389}
Center-site name: BODY CENTER
*******************************************************************************
Start time      : A.D. 2000-Jan-01 00:00:00.0000 TDB
Stop  time      : A.D. 2010-Jan-01 00:00:00.0000 TDB
Step-size       : 7200 minutes
*******************************************************************************
Center geodetic : 0.00000000,0.00000000,0.0000000 {E-lon(deg),Lat(deg),Alt(km)}
Center cylindric: 0.00000000,0.00000000,0.0000000 {E-lon(deg),Dxy(km),Dz(km)}
Center radii    : (undefined)                                                  
Output units    : AU-D                                                         
Output type     : GEOMETRIC cartesian states
Output format   : 2 (position and velocity)
Reference frame : ICRF/J2000.0                                                 
Coordinate systm: Ecliptic and Mean Equinox of Reference Epoch                 
*******************************************************************************
JDTDB
   X     Y     Z
   VX    VY    VZ
*******************************************************************************
$$SOE
2454064.500000000 = A.D. 2006-Nov-25 00:00:00.0000 TDB 
  -2.167662812427893E-03  1.207764820533542E-03 -4.235276428240600E-04
  -2.899154476505785E-03 -4.327224197802253E-03  2.549477324307843E-03
2454069.500000000 = A.D. 2006-Nov-30 00:00:00.0000 TDB 
   1.136358001903896E-04  2.230824776525232E-03 -1.180699851025754E-03
  -5.761684091201658E-03  4.496900001049221E-04  3.218249333157469E-04
2454074.500000000 = A.D. 2006-Dec-05 00:00:00.0000 TDB 
   2.275626632804444E-03  8.658626423598749E-04 -6.742478894143349E-04
  -2.461603722239980E-03  4.724770250089149E-03 -2.239128220984827E-03
2454079.500000000 = A.D. 2006-Dec-10 00:00:00.0000 TDB 
   2.016146502596741E-03 -1.421388684003427E-03  5.501358321313079E-04
   3.461661765456866E-03  3.960231374921693E-03 -2.411525199671039E-03
2454084.500000000 = A.D. 2006-Dec-15 00:00:00.0000 TDB 
  -3.968803732274738E-04 -2.186684506314205E-03  1.184986135233625E-03
   5.701081814102072E-03 -1.049898149447482E-03 -1.284039960742953E-06
2454089.500000000 = A.D. 2006-Dec-20 00:00:00.0000 TDB 
  -2.382616123896797E-03 -6.065344300628055E-04  5.486664649062895E-04
   1.820181261910975E-03 -4.952018080812623E-03  2.420347967122620E-03
2454094.500000000 = A.D. 2006-Dec-25 00:00:00.0000 TDB 
  -1.800283629027457E-03  1.626318770536176E-03 -6.784798789227451E-04
  -4.017614920186386E-03 -3.527415308645447E-03  2.238435372213415E-03
2454099.500000000 = A.D. 2006-Dec-30 00:00:00.0000 TDB 
   7.164132010047694E-04  2.117455627925794E-03 -1.179585471329094E-03
  -5.529133564989969E-03  1.667252617204019E-03 -3.390037193951724E-04
2454104.500000000 = A.D. 2007-Jan-04 00:00:00.0000 TDB 
   2.467510199118754E-03  3.461806807161732E-04 -4.203356339719720E-04
  -1.138295369707278E-03  5.062434887525936E-03 -2.544252993585177E-03
2454109.500000000 = A.D. 2007-Jan-09 00:00:00.0000 TDB 
   1.591674578112260E-03 -1.795556583799595E-03  7.874089093222275E-04
   4.472879129836248E-03  3.059322418910448E-03 -2.037111104787802E-03
2454114.500000000 = A.D. 2007-Jan-14 00:00:00.0000 TDB 
  -9.832860784325518E-04 -2.012604723037656E-03  1.150482349042358E-03
   5.311885212173897E-03 -2.234120050465171E-03  6.572271834211394E-04
2454119.500000000 = A.D. 2007-Jan-19 00:00:00.0000 TDB 
  -2.502606812513952E-03 -6.697272348511609E-05  2.774032092237247E-04
   4.386612027844598E-04 -5.142410270588503E-03  2.653906922212960E-03
2454124.500000000 = A.D. 2007-Jan-24 00:00:00.0000 TDB 
  -1.326510496031417E-03  1.948984862209970E-03 -8.935318224636784E-04
  -4.897056392301521E-03 -2.520655849202430E-03  1.795767805256343E-03
2454129.500000000 = A.D. 2007-Jan-29 00:00:00.0000 TDB 
   1.276066150532141E-03  1.879387558836071E-03 -1.109007305577622E-03
  -4.971949637289461E-03  2.784026139575741E-03 -9.784237108662172E-04
2454134.500000000 = A.D. 2007-Feb-03 00:00:00.0000 TDB 
   2.515625918394517E-03 -1.950298608874614E-04 -1.413010293526511E-04
   2.530812325161758E-04  5.104806312371272E-03 -2.701171439760018E-03
2454139.500000000 = A.D. 2007-Feb-08 00:00:00.0000 TDB 
   1.074086729417988E-03 -2.063316919025834E-03  9.778652917516156E-04
   5.221219516347601E-03  1.976679124557324E-03 -1.541981811391466E-03
2454144.500000000 = A.D. 2007-Feb-13 00:00:00.0000 TDB 
  -1.512388369432495E-03 -1.719038132792870E-03  1.047768869720818E-03
   4.606935151753385E-03 -3.288146104631645E-03  1.278064407618545E-03
2454149.500000000 = A.D. 2007-Feb-18 00:00:00.0000 TDB 
  -2.473079091657758E-03  4.754830611193680E-04 -9.862091010889127E-06
  -9.668280073361657E-04 -5.027205700686453E-03  2.729605800027146E-03
2454154.500000000 = A.D. 2007-Feb-23 00:00:00.0000 TDB 
  -7.732098570116112E-04  2.157638484937334E-03 -1.056486975719413E-03
  -5.486390255364237E-03 -1.365898943679430E-03  1.247443616028817E-03
2454159.500000000 = A.D. 2007-Feb-28 00:00:00.0000 TDB 
   1.759775385841013E-03  1.531530490342760E-03 -9.734692771973789E-04
  -4.124908830310176E-03  3.735973189316517E-03 -1.559514593348276E-03
2454164.500000000 = A.D. 2007-Mar-05 00:00:00.0000 TDB 
   2.416505968071259E-03 -7.254826089917831E-04  1.464205684557008E-04
   1.631173340996840E-03  4.847417398171275E-03 -2.699677460021664E-03
2454169.500000000 = A.D. 2007-Mar-10 00:00:00.0000 TDB 
   4.935627657378717E-04 -2.208498487338659E-03  1.110247850538118E-03
   5.662836237575503E-03  7.758091008639363E-04 -9.551752438087995E-04
2454174.500000000 = A.D. 2007-Mar-15 00:00:00.0000 TDB 
  -1.952639869571921E-03 -1.322886515356976E-03  8.827541510771674E-04
   3.627132690066285E-03 -4.147821023627906E-03  1.823651075762786E-03
2454179.500000000 = A.D. 2007-Mar-20 00:00:00.0000 TDB 
  -2.297023393178027E-03  9.893148123416573E-04 -2.962680571857771E-04
  -2.313922613432744E-03 -4.613882429774537E-03  2.643377686429205E-03
2454184.500000000 = A.D. 2007-Mar-25 00:00:00.0000 TDB 
  -1.745830961596800E-04  2.239030903505847E-03 -1.157093594467883E-03
  -5.751101797662093E-03 -1.337429682200419E-04  6.270961100330165E-04
2454189.500000000 = A.D. 2007-Mar-30 00:00:00.0000 TDB 
   2.140001503066316E-03  1.093951379647896E-03 -7.808666998858917E-04
  -3.036549866847244E-03  4.469338170962687E-03 -2.049415972751062E-03
2454194.500000000 = A.D. 2007-Apr-04 00:00:00.0000 TDB 
   2.174867142153319E-03 -1.213823636088778E-03  4.258371576090742E-04
   2.915011593078178E-03  4.305100341121824E-03 -2.539697246716294E-03
2454199.500000000 = A.D. 2007-Apr-09 00:00:00.0000 TDB 
  -1.155997333497962E-04 -2.223573917580062E-03  1.177140282515341E-03
   5.770099477500708E-03 -4.730226445128855E-04 -3.108317061297167E-04
2454204.500000000 = A.D. 2007-Apr-14 00:00:00.0000 TDB 
  -2.276931169469336E-03 -8.475992152401379E-04  6.649534150333618E-04
   2.431456965042079E-03 -4.761581374377432E-03  2.261227916243204E-03
2454209.500000000 = A.D. 2007-Apr-19 00:00:00.0000 TDB 
  -1.985572952294943E-03  1.443941015761565E-03 -5.648325781220567E-04
  -3.521760927201375E-03 -3.927266261327014E-03  2.400387252691200E-03
2454214.500000000 = A.D. 2007-Apr-24 00:00:00.0000 TDB 
   4.351684956089381E-04  2.187937839647971E-03 -1.189405105328080E-03
  -5.677793353233661E-03  1.104534558603965E-03 -2.919690500247716E-05
2454219.500000000 = A.D. 2007-Apr-29 00:00:00.0000 TDB 
   2.394939914376544E-03  5.933652788961043E-04 -5.431466893376704E-04
  -1.771270968738185E-03  4.940516004545177E-03 -2.418997092032998E-03
2454224.500000000 = A.D. 2007-May-04 00:00:00.0000 TDB 
   1.804361662324138E-03 -1.631353645927067E-03  6.805846809878768E-04
   4.030572011458882E-03  3.508016109102138E-03 -2.229865478418715E-03
2454229.500000000 = A.D. 2007-May-09 00:00:00.0000 TDB 
  -7.167274370949690E-04 -2.107574839791653E-03  1.174538159006225E-03
   5.535824787181991E-03 -1.695104147585134E-03  3.525748217062278E-04
2454234.500000000 = A.D. 2007-May-14 00:00:00.0000 TDB 
  -2.465576280912433E-03 -3.207576342923704E-04  4.070326972860683E-04
   1.090122248556273E-03 -5.091934267667718E-03  2.564356373344602E-03
2454239.500000000 = A.D. 2007-May-19 00:00:00.0000 TDB 
  -1.557652154233120E-03  1.812953314553028E-03 -7.997367151143594E-04
  -4.518695160110055E-03 -3.010643912703670E-03  2.016404249491623E-03
2454244.500000000 = A.D. 2007-May-24 00:00:00.0000 TDB 
   1.019986819878473E-03  2.007895580087963E-03 -1.151643421006815E-03
  -5.270581109933375E-03  2.276984285706642E-03 -6.833245804309551E-04
2454249.500000000 = A.D. 2007-May-29 00:00:00.0000 TDB 
   2.509983093580309E-03  5.874719264052994E-05 -2.739562196469566E-04
  -4.018589439379042E-04  5.123000137509308E-03 -2.647333966058636E-03
2454254.500000000 = A.D. 2007-Jun-03 00:00:00.0000 TDB 
   1.327023804241572E-03 -1.952179099409605E-03  8.950696556139682E-04
   4.909345148032635E-03  2.502461715859541E-03 -1.787821018714073E-03
2454259.500000000 = A.D. 2007-Jun-08 00:00:00.0000 TDB 
  -1.276080578405203E-03 -1.866992833682953E-03  1.102630991360775E-03
   4.973068213728130E-03 -2.819065486157163E-03  9.963652000995911E-04
2454264.500000000 = A.D. 2007-Jun-13 00:00:00.0000 TDB 
  -2.507187541851493E-03  2.250396515106001E-04  1.249547496421258E-04
  -3.149737237667902E-04 -5.118643948118165E-03  2.714500247722330E-03
2454269.500000000 = A.D. 2007-Jun-18 00:00:00.0000 TDB 
  -1.038406746395174E-03  2.075497828223256E-03 -9.876817880901136E-04
  -5.247586035896897E-03 -1.917871862490033E-03  1.514102962561521E-03
